[{"OBJECT_NAME":"STARLINK-4281","OBJECT_ID":"2022-076AH","EPOCH":"2026-03-09T10:01:54.442272","MEAN_MOTION":15.08832768,"ECCENTRICITY":0.00013719,"INCLINATION":53.2177,"RA_OF_ASC_NODE":85.3409,"ARG_OF_PERICENTER":93.3951,"MEAN_ANOMALY":266.7198,"EPHEMERIS_TYPE":0,"CLASSIFICATION_TYPE":"U","NORAD_CAT_ID":53017,"ELEMENT_SET_NO":999,"REV_AT_EPOCH":20295,"BSTAR":2.7703337e-5,"MEAN_MOTION_DOT":1.53e-6,"MEAN_MOTION_DDOT":0},{"OBJECT_NAME":"FENGYUN 1C DEB","OBJECT_ID":"1999-025BJR","EPOCH":"2026-03-09T02:36:25.741728","MEAN_MOTION":14.62811644,"ECCENTRICITY":0.02114789,"INCLINATION":99.2365,"RA_OF_ASC_NODE":306.6158,"ARG_OF_PERICENTER":322.0995,"MEAN_ANOMALY":36.5474,"EPHEMERIS_TYPE":0,"CLASSIFICATION_TYPE":"U","NORAD_CAT_ID":31187,"ELEMENT_SET_NO":999,"REV_AT_EPOCH":70361,"BSTAR":0.0035749119,"MEAN_MOTION_DOT":0.00025231,"MEAN_MOTION_DDOT":0}]
